CCSDS_OMM_VERS = 2.0
CREATION_DATE  = 
ORIGINATOR     = 

OBJECT_NAME    = ATLAS CENTAUR 2
OBJECT_ID      = 1963-047A
CENTER_NAME    = EARTH
REF_FRAME      = TEME
TIME_SYSTEM    = UTC
MEAN_ELEMENT_THEORY = SGP/SGP4

EPOCH          = 2025-12-07T06:41:02.276448
MEAN_MOTION    = 14.11713485
ECCENTRICITY   = .05491154
INCLINATION    = 30.3572
RA_OF_ASC_NODE = 351.9624
ARG_OF_PERICENTER = 346.0607
MEAN_ANOMALY   = 12.5367

EPHEMERIS_TYPE = 0
CLASSIFICATION_TYPE = U
NORAD_CAT_ID   = 694
ELEMENT_SET_NO = 999
REV_AT_EPOCH   = 11855
BSTAR          = .57717031E-3
MEAN_MOTION_DOT = .4787E-4
MEAN_MOTION_DDOT = 0

CCSDS_OMM_VERS = 2.0
CREATION_DATE  = 
ORIGINATOR     = 

OBJECT_NAME    = THOR AGENA D R/B
OBJECT_ID      = 1964-002A
CENTER_NAME    = EARTH
REF_FRAME      = TEME
TIME_SYSTEM    = UTC
MEAN_ELEMENT_THEORY = SGP/SGP4

EPOCH          = 2025-12-07T06:42:55.069056
MEAN_MOTION    = 14.33954771
ECCENTRICITY   = .00331121
INCLINATION    = 99.1217
RA_OF_ASC_NODE = 344.6033
ARG_OF_PERICENTER = 165.9358
MEAN_ANOMALY   = 194.2754

EPHEMERIS_TYPE = 0
CLASSIFICATION_TYPE = U
NORAD_CAT_ID   = 733
ELEMENT_SET_NO = 999
REV_AT_EPOCH   = 22505
BSTAR          = .17917604E-3
MEAN_MOTION_DOT = .454E-5
MEAN_MOTION_DDOT = 0

CCSDS_OMM_VERS = 2.0
CREATION_DATE  = 
ORIGINATOR     = 

OBJECT_NAME    = SL-3 R/B
OBJECT_ID      = 1964-053B
CENTER_NAME    = EARTH
REF_FRAME      = TEME
TIME_SYSTEM    = UTC
MEAN_ELEMENT_THEORY = SGP/SGP4

EPOCH          = 2025-12-07T03:58:40.459584
MEAN_MOTION    = 14.61267950
ECCENTRICITY   = .00733926
INCLINATION    = 65.0770
RA_OF_ASC_NODE = 242.4718
ARG_OF_PERICENTER = 322.2017
MEAN_ANOMALY   = 37.3941

EPHEMERIS_TYPE = 0
CLASSIFICATION_TYPE = U
NORAD_CAT_ID   = 877
ELEMENT_SET_NO = 999
REV_AT_EPOCH   = 25327
BSTAR          = .1706762E-3
MEAN_MOTION_DOT = .752E-5
MEAN_MOTION_DDOT = 0

CCSDS_OMM_VERS = 2.0
CREATION_DATE  = 
ORIGINATOR     = 

OBJECT_NAME    = SL-8 R/B
OBJECT_ID      = 1967-045B
CENTER_NAME    = EARTH
REF_FRAME      = TEME
TIME_SYSTEM    = UTC
MEAN_ELEMENT_THEORY = SGP/SGP4

EPOCH          = 2025-12-07T06:08:55.140000
MEAN_MOTION    = 14.45528602
ECCENTRICITY   = .00645728
INCLINATION    = 74.0096
RA_OF_ASC_NODE = 160.7021
ARG_OF_PERICENTER = 191.3129
MEAN_ANOMALY   = 168.6582

EPHEMERIS_TYPE = 0
CLASSIFICATION_TYPE = U
NORAD_CAT_ID   = 2802
ELEMENT_SET_NO = 999
REV_AT_EPOCH   = 7566
BSTAR          = .19677354E-3
MEAN_MOTION_DOT = .684E-5
MEAN_MOTION_DDOT = 0

CCSDS_OMM_VERS = 2.0
CREATION_DATE  = 
ORIGINATOR     = 

OBJECT_NAME    = SL-8 R/B
OBJECT_ID      = 1968-040B
CENTER_NAME    = EARTH
REF_FRAME      = TEME
TIME_SYSTEM    = UTC
MEAN_ELEMENT_THEORY = SGP/SGP4

EPOCH          = 2025-12-07T04:19:50.388384
MEAN_MOTION    = 15.02464667
ECCENTRICITY   = .0025065
INCLINATION    = 74.0296
RA_OF_ASC_NODE = 142.6049
ARG_OF_PERICENTER = 345.5154
MEAN_ANOMALY   = 14.5312

EPHEMERIS_TYPE = 0
CLASSIFICATION_TYPE = U
NORAD_CAT_ID   = 3230
ELEMENT_SET_NO = 999
REV_AT_EPOCH   = 7611
BSTAR          = .42080373E-3
MEAN_MOTION_DOT = .5583E-4
MEAN_MOTION_DDOT = 0

CCSDS_OMM_VERS = 2.0
CREATION_DATE  = 
ORIGINATOR     = 

OBJECT_NAME    = OAO 2
OBJECT_ID      = 1968-110A
CENTER_NAME    = EARTH
REF_FRAME      = TEME
TIME_SYSTEM    = UTC
MEAN_ELEMENT_THEORY = SGP/SGP4

EPOCH          = 2025-12-07T08:06:10.005120
MEAN_MOTION    = 14.47238983
ECCENTRICITY   = .00054834
INCLINATION    = 34.9940
RA_OF_ASC_NODE = 60.8166
ARG_OF_PERICENTER = 182.9656
MEAN_ANOMALY   = 177.1003

EPHEMERIS_TYPE = 0
CLASSIFICATION_TYPE = U
NORAD_CAT_ID   = 3597
ELEMENT_SET_NO = 999
REV_AT_EPOCH   = 571
BSTAR          = .16409606E-3
MEAN_MOTION_DOT = .589E-5
MEAN_MOTION_DDOT = 0

CCSDS_OMM_VERS = 2.0
CREATION_DATE  = 
ORIGINATOR     = 

OBJECT_NAME    = ISIS 1
OBJECT_ID      = 1969-009A
CENTER_NAME    = EARTH
REF_FRAME      = TEME
TIME_SYSTEM    = UTC
MEAN_ELEMENT_THEORY = SGP/SGP4

EPOCH          = 2025-12-06T22:51:45.535968
MEAN_MOTION    = 11.30350690
ECCENTRICITY   = .17068505
INCLINATION    = 88.4488
RA_OF_ASC_NODE = 165.4295
ARG_OF_PERICENTER = 276.3948
MEAN_ANOMALY   = 64.6339

EPHEMERIS_TYPE = 0
CLASSIFICATION_TYPE = U
NORAD_CAT_ID   = 3669
ELEMENT_SET_NO = 999
REV_AT_EPOCH   = 33805
BSTAR          = .24099785E-3
MEAN_MOTION_DOT = .331E-5
MEAN_MOTION_DDOT = 0

CCSDS_OMM_VERS = 2.0
CREATION_DATE  = 
ORIGINATOR     = 

OBJECT_NAME    = SERT 2
OBJECT_ID      = 1970-009A
CENTER_NAME    = EARTH
REF_FRAME      = TEME
TIME_SYSTEM    = UTC
MEAN_ELEMENT_THEORY = SGP/SGP4

EPOCH          = 2025-12-07T07:19:54.792192
MEAN_MOTION    = 13.58716536
ECCENTRICITY   = .000555
INCLINATION    = 99.2640
RA_OF_ASC_NODE = 284.5095
ARG_OF_PERICENTER = 46.7655
MEAN_ANOMALY   = 118.6098

EPHEMERIS_TYPE = 0
CLASSIFICATION_TYPE = U
NORAD_CAT_ID   = 4327
ELEMENT_SET_NO = 999
REV_AT_EPOCH   = 76734
BSTAR          = .13642518E-3
MEAN_MOTION_DOT = .59E-6
MEAN_MOTION_DDOT = 0

CCSDS_OMM_VERS = 2.0
CREATION_DATE  = 
ORIGINATOR     = 

OBJECT_NAME    = SL-3 R/B
OBJECT_ID      = 1971-028B
CENTER_NAME    = EARTH
REF_FRAME      = TEME
TIME_SYSTEM    = UTC
MEAN_ELEMENT_THEORY = SGP/SGP4

EPOCH          = 2025-12-07T06:25:14.791584
MEAN_MOTION    = 15.54021943
ECCENTRICITY   = .00194704
INCLINATION    = 81.2370
RA_OF_ASC_NODE = 165.5363
ARG_OF_PERICENTER = 260.0988
MEAN_ANOMALY   = 99.8063

EPHEMERIS_TYPE = 0
CLASSIFICATION_TYPE = U
NORAD_CAT_ID   = 5118
ELEMENT_SET_NO = 999
REV_AT_EPOCH   = 97428
BSTAR          = .60670989E-3
MEAN_MOTION_DOT = .39731E-3
MEAN_MOTION_DDOT = 0

CCSDS_OMM_VERS = 2.0
CREATION_DATE  = 
ORIGINATOR     = 

OBJECT_NAME    = ASTEX 1
OBJECT_ID      = 1971-089A
CENTER_NAME    = EARTH
REF_FRAME      = TEME
TIME_SYSTEM    = UTC
MEAN_ELEMENT_THEORY = SGP/SGP4

EPOCH          = 2025-12-07T07:47:21.919200
MEAN_MOTION    = 14.50632678
ECCENTRICITY   = .00170179
INCLINATION    = 92.7135
RA_OF_ASC_NODE = 121.8671
ARG_OF_PERICENTER = 42.8725
MEAN_ANOMALY   = 317.3804

EPHEMERIS_TYPE = 0
CLASSIFICATION_TYPE = U
NORAD_CAT_ID   = 5560
ELEMENT_SET_NO = 999
REV_AT_EPOCH   = 84891
BSTAR          = .28003865E-3
MEAN_MOTION_DOT = .1099E-4
MEAN_MOTION_DDOT = 0

CCSDS_OMM_VERS = 2.0
CREATION_DATE  = 
ORIGINATOR     = 

OBJECT_NAME    = SL-8 R/B
OBJECT_ID      = 1971-119B
CENTER_NAME    = EARTH
REF_FRAME      = TEME
TIME_SYSTEM    = UTC
MEAN_ELEMENT_THEORY = SGP/SGP4

EPOCH          = 2025-12-07T01:01:29.455392
MEAN_MOTION    = 14.35531938
ECCENTRICITY   = .05599376
INCLINATION    = 73.8883
RA_OF_ASC_NODE = 348.6081
ARG_OF_PERICENTER = 334.0165
MEAN_ANOMALY   = 23.3817

EPHEMERIS_TYPE = 0
CLASSIFICATION_TYPE = U
NORAD_CAT_ID   = 5730
ELEMENT_SET_NO = 999
REV_AT_EPOCH   = 64218
BSTAR          = .83206634E-3
MEAN_MOTION_DOT = .1593E-3
MEAN_MOTION_DDOT = 0

CCSDS_OMM_VERS = 2.0
CREATION_DATE  = 
ORIGINATOR     = 

OBJECT_NAME    = OAO 3 (COPERNICUS)
OBJECT_ID      = 1972-065A
CENTER_NAME    = EARTH
REF_FRAME      = TEME
TIME_SYSTEM    = UTC
MEAN_ELEMENT_THEORY = SGP/SGP4

EPOCH          = 2025-12-07T02:08:51.398592
MEAN_MOTION    = 14.59898379
ECCENTRICITY   = .00060157
INCLINATION    = 35.0051
RA_OF_ASC_NODE = 104.8524
ARG_OF_PERICENTER = 125.5564
MEAN_ANOMALY   = 43.4863

EPHEMERIS_TYPE = 0
CLASSIFICATION_TYPE = U
NORAD_CAT_ID   = 6153
ELEMENT_SET_NO = 999
REV_AT_EPOCH   = 83265
BSTAR          = .15949005E-3
MEAN_MOTION_DOT = .754E-5
MEAN_MOTION_DDOT = 0

