ATLAS CENTAUR 2         
1 00694U 63047A   25341.27849857  .00004787  00000+0  57717-3 0  9999
2 00694  30.3572 351.9624 0549115 346.0607  12.5367 14.11713485118551
THOR AGENA D R/B        
1 00733U 64002A   25341.27980404  .00000454  00000+0  17918-3 0  9995
2 00733  99.1217 344.6033 0033112 165.9358 194.2754 14.33954771225054
SL-3 R/B                
1 00877U 64053B   25341.16574606  .00000752  00000+0  17068-3 0  9998
2 00877  65.0770 242.4718 0073392 322.2017  37.3941 14.61267950253275
SL-8 R/B                
1 02802U 67045B   25341.25619375  .00000684  00000+0  19677-3 0  9997
2 02802  74.0096 160.7021 0064572 191.3129 168.6582 14.45528602 75664
SL-8 R/B                
1 03230U 68040B   25341.18044431  .00005583  00000+0  42080-3 0  9993
2 03230  74.0296 142.6049 0025065 345.5154  14.5312 15.02464667 76111
OAO 2                   
1 03597U 68110A   25341.33761580  .00000589  00000+0  16410-3 0  9994
2 03597  34.9940  60.8166 0005483 182.9656 177.1003 14.47238983  5710
ISIS 1                  
1 03669U 69009A   25340.95261037  .00000331  00000+0  24100-3 0  9991
2 03669  88.4488 165.4295 1706850 276.3948  64.6339 11.30350690338052
SERT 2                  
1 04327U 70009A   25341.30549528  .00000059  00000+0  13643-3 0  9996
2 04327  99.2640 284.5095 0005550  46.7655 118.6098 13.58716536767344
SL-3 R/B                
1 05118U 71028B   25341.26753231  .00039731  00000+0  60671-3 0  9992
2 05118  81.2370 165.5363 0019470 260.0988  99.8063 15.54021943974280
ASTEX 1                 
1 05560U 71089A   25341.32455925  .00001099  00000+0  28004-3 0  9996
2 05560  92.7135 121.8671 0017017  42.8725 317.3804 14.50632678848913
SL-8 R/B                
1 05730U 71119B   25341.04270203  .00015930  00000+0  83207-3 0  9997
2 05730  73.8883 348.6081 0559937 334.0165  23.3817 14.35531938642181
OAO 3 (COPERNICUS)      
1 06153U 72065A   25341.08948378  .00000754  00000+0  15949-3 0  9993
2 06153  35.0051 104.8524 0006015 125.5564  43.4863 14.59898379832650
